[{"OBJECT_NAME":"HULIANWANG DIGUI-113","OBJECT_ID":"2025-285J","EPOCH":"2026-03-02T17:31:49.671264","MEAN_MOTION":13.29331783,"ECCENTRICITY":4.2e-6,"INCLINATION":50.0096,"RA_OF_ASC_NODE":167.4725,"ARG_OF_PERICENTER":333.6381,"MEAN_ANOMALY":26.4489,"EPHEMERIS_TYPE":0,"CLASSIFICATION_TYPE":"U","NORAD_CAT_ID":66923,"ELEMENT_SET_NO":999,"REV_AT_EPOCH":1190,"BSTAR":-0.00017433,"MEAN_MOTION_DOT":-2.05e-6,"MEAN_MOTION_DDOT":0},{"OBJECT_NAME":"HULIANWANG DIGUI-114","OBJECT_ID":"2025-287A","EPOCH":"2026-03-02T18:29:03.987456","MEAN_MOTION":13.24415473,"ECCENTRICITY":0.0001972,"INCLINATION":86.4978,"RA_OF_ASC_NODE":318.3466,"ARG_OF_PERICENTER":81.6775,"MEAN_ANOMALY":278.4583,"EPHEMERIS_TYPE":0,"CLASSIFICATION_TYPE":"U","NORAD_CAT_ID":66953,"ELEMENT_SET_NO":999,"REV_AT_EPOCH":1125,"BSTAR":9.8062e-5,"MEAN_MOTION_DOT":5.7e-7,"MEAN_MOTION_DDOT":0},{"OBJECT_NAME":"HULIANWANG DIGUI-115","OBJECT_ID":"2025-287B","EPOCH":"2026-03-02T18:18:09.778752","MEAN_MOTION":13.24415504,"ECCENTRICITY":0.0002057,"INCLINATION":86.4995,"RA_OF_ASC_NODE":318.3578,"ARG_OF_PERICENTER":81.2286,"MEAN_ANOMALY":278.9081,"EPHEMERIS_TYPE":0,"CLASSIFICATION_TYPE":"U","NORAD_CAT_ID":66954,"ELEMENT_SET_NO":999,"REV_AT_EPOCH":1125,"BSTAR":7.8054e-5,"MEAN_MOTION_DOT":4.8e-7,"MEAN_MOTION_DDOT":0},{"OBJECT_NAME":"HULIANWANG DIGUI-116","OBJECT_ID":"2025-287C","EPOCH":"2026-03-02T18:07:17.763744","MEAN_MOTION":13.24415591,"ECCENTRICITY":0.0002053,"INCLINATION":86.4934,"RA_OF_ASC_NODE":318.2984,"ARG_OF_PERICENTER":81.129,"MEAN_ANOMALY":279.0076,"EPHEMERIS_TYPE":0,"CLASSIFICATION_TYPE":"U","NORAD_CAT_ID":66955,"ELEMENT_SET_NO":999,"REV_AT_EPOCH":1125,"BSTAR":0.00010768,"MEAN_MOTION_DOT":6.1e-7,"MEAN_MOTION_DDOT":0},{"OBJECT_NAME":"HULIANWANG DIGUI-117","OBJECT_ID":"2025-287D","EPOCH":"2026-03-02T17:56:28.174848","MEAN_MOTION":13.24413717,"ECCENTRICITY":0.0001439,"INCLINATION":86.4995,"RA_OF_ASC_NODE":318.3512,"ARG_OF_PERICENTER":23.8495,"MEAN_ANOMALY":336.2705,"EPHEMERIS_TYPE":0,"CLASSIFICATION_TYPE":"U","NORAD_CAT_ID":66956,"ELEMENT_SET_NO":999,"REV_AT_EPOCH":1125,"BSTAR":0.0001464,"MEAN_MOTION_DOT":7.7e-7,"MEAN_MOTION_DDOT":0},{"OBJECT_NAME":"HULIANWANG DIGUI-118","OBJECT_ID":"2025-287E","EPOCH":"2026-03-02T17:45:34.245216","MEAN_MOTION":13.24414996,"ECCENTRICITY":0.0002043,"INCLINATION":86.4971,"RA_OF_ASC_NODE":318.3256,"ARG_OF_PERICENTER":81.1233,"MEAN_ANOMALY":279.0132,"EPHEMERIS_TYPE":0,"CLASSIFICATION_TYPE":"U","NORAD_CAT_ID":66957,"ELEMENT_SET_NO":999,"REV_AT_EPOCH":1125,"BSTAR":0.00019968,"MEAN_MOTION_DOT":1.0e-6,"MEAN_MOTION_DDOT":0},{"OBJECT_NAME":"HULIANWANG DIGUI-119","OBJECT_ID":"2025-295A","EPOCH":"2026-03-02T18:39:00.521568","MEAN_MOTION":13.51600384,"ECCENTRICITY":1.5e-5,"INCLINATION":50.0036,"RA_OF_ASC_NODE":48.6911,"ARG_OF_PERICENTER":355.1515,"MEAN_ANOMALY":4.9366,"EPHEMERIS_TYPE":0,"CLASSIFICATION_TYPE":"U","NORAD_CAT_ID":67059,"ELEMENT_SET_NO":999,"REV_AT_EPOCH":1132,"BSTAR":0.00010828,"MEAN_MOTION_DOT":-6.1e-7,"MEAN_MOTION_DDOT":0},{"OBJECT_NAME":"HULIANWANG DIGUI-120","OBJECT_ID":"2025-295B","EPOCH":"2026-03-02T11:15:00.294624","MEAN_MOTION":13.51973214,"ECCENTRICITY":0.0001169,"INCLINATION":50.0047,"RA_OF_ASC_NODE":49.7293,"ARG_OF_PERICENTER":319.1501,"MEAN_ANOMALY":40.9294,"EPHEMERIS_TYPE":0,"CLASSIFICATION_TYPE":"U","NORAD_CAT_ID":67060,"ELEMENT_SET_NO":999,"REV_AT_EPOCH":1128,"BSTAR":0.00010793,"MEAN_MOTION_DOT":-6.1e-7,"MEAN_MOTION_DDOT":0},{"OBJECT_NAME":"HULIANWANG DIGUI-121","OBJECT_ID":"2025-295C","EPOCH":"2026-03-02T20:16:45.814944","MEAN_MOTION":13.51739032,"ECCENTRICITY":7.9e-5,"INCLINATION":50.0011,"RA_OF_ASC_NODE":48.3568,"ARG_OF_PERICENTER":312.6066,"MEAN_ANOMALY":47.4749,"EPHEMERIS_TYPE":0,"CLASSIFICATION_TYPE":"U","NORAD_CAT_ID":67061,"ELEMENT_SET_NO":999,"REV_AT_EPOCH":1133,"BSTAR":0.00010857,"MEAN_MOTION_DOT":-6.1e-7,"MEAN_MOTION_DDOT":0},{"OBJECT_NAME":"HULIANWANG DIGUI-122","OBJECT_ID":"2025-295D","EPOCH":"2026-03-02T19:57:35.697888","MEAN_MOTION":13.52161141,"ECCENTRICITY":4.91e-5,"INCLINATION":50.004,"RA_OF_ASC_NODE":48.3122,"ARG_OF_PERICENTER":287.0373,"MEAN_ANOMALY":73.0455,"EPHEMERIS_TYPE":0,"CLASSIFICATION_TYPE":"U","NORAD_CAT_ID":67062,"ELEMENT_SET_NO":999,"REV_AT_EPOCH":1133,"BSTAR":0.00010895,"MEAN_MOTION_DOT":-6.0e-7,"MEAN_MOTION_DDOT":0},{"OBJECT_NAME":"HULIANWANG DIGUI-123","OBJECT_ID":"2025-295E","EPOCH":"2026-03-02T12:41:33.912672","MEAN_MOTION":13.52068102,"ECCENTRICITY":3.47e-5,"INCLINATION":50.0042,"RA_OF_ASC_NODE":49.3807,"ARG_OF_PERICENTER":296.4241,"MEAN_ANOMALY":63.6606,"EPHEMERIS_TYPE":0,"CLASSIFICATION_TYPE":"U","NORAD_CAT_ID":67063,"ELEMENT_SET_NO":999,"REV_AT_EPOCH":1129,"BSTAR":0.00013295,"MEAN_MOTION_DOT":-4.4e-7,"MEAN_MOTION_DDOT":0},{"OBJECT_NAME":"HULIANWANG DIGUI-124","OBJECT_ID":"2025-295F","EPOCH":"2026-03-02T19:39:01.113696","MEAN_MOTION":13.52370348,"ECCENTRICITY":6.89e-5,"INCLINATION":50.0002,"RA_OF_ASC_NODE":48.2089,"ARG_OF_PERICENTER":350.5635,"MEAN_ANOMALY":9.5234,"EPHEMERIS_TYPE":0,"CLASSIFICATION_TYPE":"U","NORAD_CAT_ID":67064,"ELEMENT_SET_NO":999,"REV_AT_EPOCH":1133,"BSTAR":0.00010948,"MEAN_MOTION_DOT":-6.0e-7,"MEAN_MOTION_DDOT":0},{"OBJECT_NAME":"HULIANWANG DIGUI-125","OBJECT_ID":"2025-295G","EPOCH":"2026-03-02T19:29:36.075840","MEAN_MOTION":13.52401826,"ECCENTRICITY":0.0001163,"INCLINATION":49.9992,"RA_OF_ASC_NODE":48.167,"ARG_OF_PERICENTER":6.8822,"MEAN_ANOMALY":353.2076,"EPHEMERIS_TYPE":0,"CLASSIFICATION_TYPE":"U","NORAD_CAT_ID":67065,"ELEMENT_SET_NO":999,"REV_AT_EPOCH":1133,"BSTAR":0.00010813,"MEAN_MOTION_DOT":-6.0e-7,"MEAN_MOTION_DDOT":0},{"OBJECT_NAME":"HULIANWANG DIGUI-126","OBJECT_ID":"2025-295H","EPOCH":"2026-03-02T19:19:08.808384","MEAN_MOTION":13.52351382,"ECCENTRICITY":7.92e-5,"INCLINATION":49.9997,"RA_OF_ASC_NODE":48.1287,"ARG_OF_PERICENTER":49.3904,"MEAN_ANOMALY":310.7047,"EPHEMERIS_TYPE":0,"CLASSIFICATION_TYPE":"U","NORAD_CAT_ID":67066,"ELEMENT_SET_NO":999,"REV_AT_EPOCH":1133,"BSTAR":7.7997e-5,"MEAN_MOTION_DOT":-8.0e-7,"MEAN_MOTION_DDOT":0},{"OBJECT_NAME":"HULIANWANG DIGUI-127","OBJECT_ID":"2025-295J","EPOCH":"2026-03-02T19:03:55.554336","MEAN_MOTION":13.52264437,"ECCENTRICITY":7.92e-5,"INCLINATION":50.0026,"RA_OF_ASC_NODE":48.0914,"ARG_OF_PERICENTER":357.4091,"MEAN_ANOMALY":2.6787,"EPHEMERIS_TYPE":0,"CLASSIFICATION_TYPE":"U","NORAD_CAT_ID":67067,"ELEMENT_SET_NO":999,"REV_AT_EPOCH":1133,"BSTAR":-0.00027812,"MEAN_MOTION_DOT":-3.16e-6,"MEAN_MOTION_DDOT":0},{"OBJECT_NAME":"HULIANWANG DIGUI-128","OBJECT_ID":"2025-311A","EPOCH":"2026-03-02T17:58:28.721856","MEAN_MOTION":13.36478286,"ECCENTRICITY":4.61e-5,"INCLINATION":50.0074,"RA_OF_ASC_NODE":137.3953,"ARG_OF_PERICENTER":357.6491,"MEAN_ANOMALY":2.4382,"EPHEMERIS_TYPE":0,"CLASSIFICATION_TYPE":"U","NORAD_CAT_ID":67236,"ELEMENT_SET_NO":999,"REV_AT_EPOCH":918,"BSTAR":0.00011859,"MEAN_MOTION_DOT":-6.5e-7,"MEAN_MOTION_DDOT":0}]
